[{"OBJECT_NAME":"IRIDIUM 172","OBJECT_ID":"2019-002F","EPOCH":"2026-03-09T21:35:38.790528","MEAN_MOTION":14.34217807,"ECCENTRICITY":0.00023275,"INCLINATION":86.397,"RA_OF_ASC_NODE":35.0518,"ARG_OF_PERICENTER":84.9159,"MEAN_ANOMALY":275.2302,"EPHEMERIS_TYPE":0,"CLASSIFICATION_TYPE":"U","NORAD_CAT_ID":43927,"ELEMENT_SET_NO":999,"REV_AT_EPOCH":37473,"BSTAR":0.00014166362,"MEAN_MOTION_DOT":4.17e-6,"MEAN_MOTION_DDOT":0},{"OBJECT_NAME":"DMSP 5D-2 F13 DEB","OBJECT_ID":"1995-015BB","EPOCH":"2026-03-08T12:01:53.653152","MEAN_MOTION":14.32501559,"ECCENTRICITY":0.00233268,"INCLINATION":98.9275,"RA_OF_ASC_NODE":80.899,"ARG_OF_PERICENTER":189.9741,"MEAN_ANOMALY":170.0982,"EPHEMERIS_TYPE":0,"CLASSIFICATION_TYPE":"U","NORAD_CAT_ID":40449,"ELEMENT_SET_NO":999,"REV_AT_EPOCH":56917,"BSTAR":0.0023479101,"MEAN_MOTION_DOT":6.341e-5,"MEAN_MOTION_DDOT":0}]
